[{"OBJECT_NAME":"TIANQI-17","OBJECT_ID":"2025-105B","EPOCH":"2026-03-09T16:13:53.676480","MEAN_MOTION":13.99116409,"ECCENTRICITY":0.0011901,"INCLINATION":44.9793,"RA_OF_ASC_NODE":104.4582,"ARG_OF_PERICENTER":269.8023,"MEAN_ANOMALY":90.1446,"EPHEMERIS_TYPE":0,"CLASSIFICATION_TYPE":"U","NORAD_CAT_ID":64059,"ELEMENT_SET_NO":999,"REV_AT_EPOCH":4126,"BSTAR":0.0001561646,"MEAN_MOTION_DOT":9.9e-7,"MEAN_MOTION_DDOT":0},{"OBJECT_NAME":"METEOR 2-17 DEB","OBJECT_ID":"1988-005AB","EPOCH":"2026-03-05T02:16:50.154816","MEAN_MOTION":13.99425554,"ECCENTRICITY":0.00153608,"INCLINATION":82.5193,"RA_OF_ASC_NODE":349.3598,"ARG_OF_PERICENTER":290.3765,"MEAN_ANOMALY":131.583,"EPHEMERIS_TYPE":0,"CLASSIFICATION_TYPE":"U","NORAD_CAT_ID":35367,"ELEMENT_SET_NO":999,"REV_AT_EPOCH":31913,"BSTAR":0.0017397888,"MEAN_MOTION_DOT":2.549e-5,"MEAN_MOTION_DDOT":0}]
